#dP2019 11 19  0  0  0.00000000      97 __u+U IGS08 FIT  IAC
## 2080 172800.00000000   900.00000000 58806 0.0000000000000
+  113   C01C02C03C04C05C06C07C08C09C10C11C13C14C16C19C20C21
+        C22C23C24C25C26C27C28C29C30C32C33C34C35C36C37E01E02
+        E03E04E05E07E08E09E11E12E13E14E15E18E19E21E24E25E26
+        E27E30E31E33E36G01G02G03G04G05G06G07G08G09G10G11G12
+        G13G14G15G16G17G18G19G20G21G22G23G24G25G26G27G28G29
+        G30G31G32J01J02J03J07R01R02R03R05R07R08R09R11R12R13
+        R14R15R16R17R18R19R20R21R23R24R26  0  0  0  0  0  0
++        13 13 13 13  0  8  8  8  8  7  7  8  7  8  7  7  7
++         7  7  7  7  7  7  7  7  7  8  8  7  8  8  8  4  4
++         4  4  3  4  4  4  4  4  4  4  4  4  4  3  4  3  4
++         4  4  3  4  4  3  3  3  3  3  3  3  3  3  3  3  3
++         3  3  3  3  3  3  3  3  3  3  3  3  3  3  3  3  3
++         3  3  3  8  8  8 13  6  5  5  5  5  5  5  5  5  6
++         5  5  5  5  5  6  6  5  5  6  7  0  0  0  0  0  0
%c M  cc GPS ccc cccc cccc cccc cccc ccccc ccccc ccccc ccccc
%c cc cc ccc ccc cccc cccc cccc cccc ccccc ccccc ccccc ccccc
%f  1.2500000  1.025000000  0.00000000000  0.000000000000000
%f  0.0000000  0.000000000  0.00000000000  0.000000000000000
%i    0    0    0    0      0      0      0      0         0
%i    0    0    0    0      0      0      0      0         0
/* INFORMATION & ANALYSIS CENTER (IAC)            FINAL DATA
/* S/V CLOCKS ARE ALIGNED TO GNSS TIME                      
/* G:C1WC2W R:C1PC2P E:C1XC5X C:C2IC6I J:C1CC2S             
/* PCV:IGS14_2076 OL/AL:FES2004  NONE     YN ORB:CoN CLK:CoN
*  2019 11 19 10 15  0.00000000
PC01 -32355.265383  27057.300221   -295.094917    158.343769
PC02   4447.589272  41898.991142   -569.601658    729.686228
PC03 -14773.561708  39481.203862   -811.042233    -17.936656
PC04 -39631.072231  14453.204211   -315.823704   -420.533547
PC05      0.000000      0.000000      0.000000 999999.999999
PC06 -24175.951565  28281.428086  19797.428111    313.884711
PC07 -12636.686357  36846.437254  16908.866962   -273.738845
PC08 -10191.502120  19163.136594 -36057.353440    -36.636609
PC09  -7893.536695  27800.347487  30804.999259    126.840301
PC10  -1608.623933  42233.156273   3421.447647   -380.861483
PC11 -27358.289762   -357.340072   5730.359996    -11.177677
PC13   5536.224791  27345.552810 -31461.455390    113.873378
PC14 -17042.323354   1037.933177 -22062.058501    406.475257
PC16 -21629.190675  28673.351507  21966.047987   -924.089328
PC19  17999.576531 -11163.902600  18178.108340    248.920613
PC20  13564.408298   8822.933333  22744.739395   -310.062492
PC21   -896.343743 -24150.569550 -13930.094975    171.337115
PC22  12069.662412 -24975.409952   2907.980004   -389.399303
PC23  -5309.857856  17559.956080  21037.676050   -878.454925
PC24 -20534.259806 -16901.961377   8494.918988   -879.650653
PC25 -18195.282514   1234.006669  21127.533392   -419.141277
PC26 -11762.466167 -23916.452136  -8325.634004    465.932052
PC27   5568.768097  15181.039902 -22755.005511    227.746161
PC28 -15361.011072  14568.404354 -18181.594396    218.858092
PC29  26965.595078  -6498.500915   3045.166022    148.183576
PC30  23257.316846   6180.544958 -14138.411768    226.781693
PC32   1076.107555  24163.771060  13927.530459   -866.526650
PC33 -17971.486039  11198.493856 -18186.791651   -583.163343
PC34 -23432.208760  -6085.415296  13865.539008   -245.576320
PC35  14961.032511 -15104.208385  18095.857927   -569.176137
PC36  18283.533012   -620.691826 -21044.384199   -902.918247
PC37  10745.882811  24178.810139   8871.179894   -773.111668
PE01  11423.696166 -15554.259469 -22437.044984   -734.988262
PE02 -11397.025059  15612.185377  22420.334215     92.946808
PE03 -22224.837026  19448.262747  -2130.185001   -234.690276
PE04   8775.769320 -23727.485086 -15369.549965   -408.694183
PE05 -22769.936091   3717.041548 -18552.395616   -429.982515
PE07   9997.392382  14095.508743  24031.183047   -301.267587
PE08  -8529.806109  23703.720518  15547.997195   6261.029539
PE09 -10076.657631 -13852.768072 -24141.983480   6248.036135
PE11 -20632.323810 -15542.350324  14446.912579     51.576932
PE12    223.013109 -16703.470333  24440.712532   6092.504058
PE13  20569.470781  15459.023490 -14618.549888    395.532973
PE14 -21544.654884  -1670.055152  12125.688201   -799.908280
PE15    207.736810  16682.984124 -24438.806126    887.294640
PE18  20741.657825  10674.802393 -21500.991290   -895.000930
PE19  22925.404016 -18259.864371   4146.597055     -2.836859
PE21  17405.731192   6228.871693 -23112.570730   -566.730701
PE24 -13104.567008 -24503.331860  10224.100512   5759.393504
PE25 -17417.511261  -6325.443604  23094.107908   -496.181293
PE26  28858.048963   5209.925197   3984.212427   3859.733013
PE27  13186.478132  24462.933775 -10175.321975    342.550967
PE30   1056.358661  28270.604968   8688.678957   4372.539660
PE31  -1262.919518 -28272.443608  -8658.784780   -470.553934
PE33  20299.388033  -8134.877355  19955.170425   -471.749338
PE36 -28900.599040  -5175.939443  -3779.269568    634.909440
PG01  22367.508194  14633.356609    393.700699   -202.314407
PG02  -7131.445604 -18729.781681  18113.399722   -349.809765
PG03  13327.958739  11042.675527  20110.994283    -39.034616
PG04  24672.740576  -4869.255300   8455.233116    -10.692202
PG05  -3727.038744 -25454.660313  -6308.031108     -3.644240
PG06   7111.811800 -13096.072432  22031.359589   -128.364799
PG07  22153.281246   2626.330116 -14484.966778   -152.034892
PG08  11569.054353  10550.168105 -21447.556462    -13.884626
PG09  24411.748984  -5657.402164   8759.176499    -87.214053
PG10 -11541.565901  18378.285190 -15093.705060   -140.419421
PG11  23557.691690   9268.322467  -8004.237995   -443.721424
PG12  -9914.289623 -16805.648688  17883.721285    181.951764
PG13  -1804.289331 -15262.385828 -21777.206175    -31.904334
PG14 -11490.980555  17307.948289  16768.369784    -49.639121
PG15 -13777.352214  -9775.325232 -20857.499418   -271.594062
PG16   -426.836595  25870.514348  -5030.584589    -94.648280
PG17  20265.418691 -15014.998272   8619.454042    165.715919
PG18  18406.459891  17567.419815  -8286.686906    101.163250
PG19  15640.005233 -15972.256161  14063.016124   -237.715315
PG20 -14666.798022   8563.249980 -20481.395025    527.496207
PG21 -20185.704967   1814.817294 -16268.768991    -83.746474
PG22  11976.346089  18152.278833  15532.097357   -772.644435
PG23  20852.261376   2759.734667  16787.376582   -154.637036
PG24 -22259.489047 -14721.116792  -2089.275540     -5.093212
PG25 -14931.567269   -888.350962  21731.191742    -17.244912
PG26  -4730.227072  25426.274667   5543.920357     87.543934
PG27  -1025.305905  16313.305687 -20978.439217   -124.601344
PG28  12176.706424 -18828.741626 -13723.738873    754.435000
PG29 -24426.755877   3088.343048   9964.707279     40.287717
PG30  15081.123127  -7617.806893 -20502.735608    -87.218832
PG31  -5615.078324  14466.487982  21489.805145     -4.208379
PG32 -19340.066234  16242.760287   8062.508910    129.744874
PJ01 -24383.161358  32164.304725  -7651.249088   -331.485840
PJ02 -23645.310806  24395.287121  29877.284981     -0.097889
PJ03 -35180.486248  19892.122388  -7287.829129     -6.876529
PJ07 -25420.651944  33636.832214     -9.343234     -0.026619
PR01 -15444.166700  19267.378507  -6430.334352     52.896194
PR02  -5363.052310  20631.778820  13995.134133    398.469798
PR03   7286.619753   8835.216741  22820.124417      5.084492
PR05  15039.831727 -20257.854909   3838.031754     39.682355
PR07  -7555.344408  -8417.351333 -22839.620787    -29.632290
PR08 -15537.864895   7892.793570 -18576.713125     14.339025
PR09  -8703.655577 -23128.940803  -6166.310384    101.880680
PR11 -13482.000772  -3483.836675  21380.744462     19.479666
PR12  -4783.297769  12814.539027  21557.371835     80.542623
PR13   7348.090385  22713.390971   8979.358145    -31.170680
PR14  14559.097169  19120.470564  -8552.280926     45.226401
PR15  13599.917305   4536.338772 -21071.731438    104.802672
PR16   4406.282176 -13369.772486 -21317.909163      0.213955
PR17  18889.364334   7851.922031 -15195.185158    277.080480
PR18  25503.174958    878.549274    890.914916     15.031714
PR19  18665.674513  -5965.331280  16326.518775    -64.710617
PR20   -878.101798 -10475.636201  23249.883160   -396.595719
PR21 -19521.968125  -7573.597781  14596.310777    -86.221599
PR23 -13334.985410   8325.357286 -20094.501218    267.775201
PR24   3541.033980  10526.718433 -22984.766196   -186.911066
PR26   2966.228360 -10268.593395  23172.178889      9.822942
EOF
